STARLINK-1622           
1 46128U 20057M   20253.25001157  .00021176  00000-0  20750-3 0  9992
2 46128  52.9979 333.6314 0000996  47.2293 252.8440 15.66082135  1775
STARLINK-1623           
1 46129U 20057N   20253.25001157  .00170390  00000-0  18540-2 0  9999
2 46129  53.0020 333.9906 0007513 303.2055 201.4945 15.62361832  1778
STARLINK-1624           
1 46130U 20057P   20253.50001157  .00001908  00000-0  26715-4 0  9992
2 46130  53.0001 332.7262 0001813 313.7786 168.6922 15.62714547  4121
STARLINK-1625           
1 46131U 20057Q   20253.25001157  .00023635  00000-0  22920-3 0  9999
2 46131  52.9986 333.6353 0001529  65.5127 239.8183 15.66268045  1823
STARLINK-1630           
1 46132U 20057R   20253.50001157 -.00064277  00000-0 -70071-3 0  9997
2 46132  53.0004 332.7491 0001254  50.2231  58.8354 15.62788510  4127
STARLINK-1637           
1 46133U 20057S   20253.25001157  .00020536  00000-0  19984-3 0  9994
2 46133  52.9982 333.5996 0002280 309.4367   9.5331 15.66276573  1770
STARLINK-1638           
1 46134U 20057T   20253.25001157  .00023489  00000-0  26129-3 0  9994
2 46134  53.0006 333.9892 0004689 281.9128 212.8797 15.62776388  1773
STARLINK-1639           
1 46135U 20057U   20253.25001157 -.00011460  00000-0 -11957-3 0  9996
2 46135  52.9997 333.9441 0000992  59.5623  94.4115 15.62737464  1773
