<?xml version="1.0" encoding="UTF-8"?>
<ndm xmlns:xsi="https://www.w3.org/2001/XMLSchema-instance" xsi:noNamespaceSchemaLocation="https://sanaregistry.org/r/ndmxml/ndmxml-1.0-master.xsd">
<omm id="CCSDS_OMM_VERS" version="2.0">
<header><CREATION_DATE/><ORIGINATOR/></header><body><segment><metadata><OBJECT_NAME>STARLINK-1622</OBJECT_NAME><OBJECT_ID>2020-057M</OBJECT_ID><CENTER_NAME>EARTH</CENTER_NAME><REF_FRAME>TEME</REF_FRAME><TIME_SYSTEM>UTC</TIME_SYSTEM><MEAN_ELEMENT_THEORY>SGP4</MEAN_ELEMENT_THEORY></metadata><data><meanElements><EPOCH>2020-09-09T06:00:00.999648</EPOCH><MEAN_MOTION>15.66082135</MEAN_MOTION><ECCENTRICITY>.0000996</ECCENTRICITY><INCLINATION>52.9979</INCLINATION><RA_OF_ASC_NODE>333.6314</RA_OF_ASC_NODE><ARG_OF_PERICENTER>47.2293</ARG_OF_PERICENTER><MEAN_ANOMALY>252.8440</MEAN_ANOMALY></meanElements><tleParameters><EPHEMERIS_TYPE>0</EPHEMERIS_TYPE><CLASSIFICATION_TYPE>U</CLASSIFICATION_TYPE><NORAD_CAT_ID>46128</NORAD_CAT_ID><ELEMENT_SET_NO>999</ELEMENT_SET_NO><REV_AT_EPOCH>177</REV_AT_EPOCH><BSTAR>.20750E-3</BSTAR><MEAN_MOTION_DOT>2.1176E-4</MEAN_MOTION_DOT><MEAN_MOTION_DDOT>0</MEAN_MOTION_DDOT></tleParameters></data></segment></body></omm>
<omm id="CCSDS_OMM_VERS" version="2.0">
<header><CREATION_DATE/><ORIGINATOR/></header><body><segment><metadata><OBJECT_NAME>STARLINK-1623</OBJECT_NAME><OBJECT_ID>2020-057N</OBJECT_ID><CENTER_NAME>EARTH</CENTER_NAME><REF_FRAME>TEME</REF_FRAME><TIME_SYSTEM>UTC</TIME_SYSTEM><MEAN_ELEMENT_THEORY>SGP4</MEAN_ELEMENT_THEORY></metadata><data><meanElements><EPOCH>2020-09-09T06:00:00.999648</EPOCH><MEAN_MOTION>15.62361832</MEAN_MOTION><ECCENTRICITY>.0007513</ECCENTRICITY><INCLINATION>53.0020</INCLINATION><RA_OF_ASC_NODE>333.9906</RA_OF_ASC_NODE><ARG_OF_PERICENTER>303.2055</ARG_OF_PERICENTER><MEAN_ANOMALY>201.4945</MEAN_ANOMALY></meanElements><tleParameters><EPHEMERIS_TYPE>0</EPHEMERIS_TYPE><CLASSIFICATION_TYPE>U</CLASSIFICATION_TYPE><NORAD_CAT_ID>46129</NORAD_CAT_ID><ELEMENT_SET_NO>999</ELEMENT_SET_NO><REV_AT_EPOCH>177</REV_AT_EPOCH><BSTAR>.18540E-2</BSTAR><MEAN_MOTION_DOT>1.7039E-3</MEAN_MOTION_DOT><MEAN_MOTION_DDOT>0</MEAN_MOTION_DDOT></tleParameters></data></segment></body></omm>
<omm id="CCSDS_OMM_VERS" version="2.0">
<header><CREATION_DATE/><ORIGINATOR/></header><body><segment><metadata><OBJECT_NAME>STARLINK-1624</OBJECT_NAME><OBJECT_ID>2020-057P</OBJECT_ID><CENTER_NAME>EARTH</CENTER_NAME><REF_FRAME>TEME</REF_FRAME><TIME_SYSTEM>UTC</TIME_SYSTEM><MEAN_ELEMENT_THEORY>SGP4</MEAN_ELEMENT_THEORY></metadata><data><meanElements><EPOCH>2020-09-09T12:00:00.999648</EPOCH><MEAN_MOTION>15.62714547</MEAN_MOTION><ECCENTRICITY>.0001813</ECCENTRICITY><INCLINATION>53.0001</INCLINATION><RA_OF_ASC_NODE>332.7262</RA_OF_ASC_NODE><ARG_OF_PERICENTER>313.7786</ARG_OF_PERICENTER><MEAN_ANOMALY>168.6922</MEAN_ANOMALY></meanElements><tleParameters><EPHEMERIS_TYPE>0</EPHEMERIS_TYPE><CLASSIFICATION_TYPE>U</CLASSIFICATION_TYPE><NORAD_CAT_ID>46130</NORAD_CAT_ID><ELEMENT_SET_NO>999</ELEMENT_SET_NO><REV_AT_EPOCH>412</REV_AT_EPOCH><BSTAR>.26715E-4</BSTAR><MEAN_MOTION_DOT>1.908E-5</MEAN_MOTION_DOT><MEAN_MOTION_DDOT>0</MEAN_MOTION_DDOT></tleParameters></data></segment></body></omm>
<omm id="CCSDS_OMM_VERS" version="2.0">
<header><CREATION_DATE/><ORIGINATOR/></header><body><segment><metadata><OBJECT_NAME>STARLINK-1625</OBJECT_NAME><OBJECT_ID>2020-057Q</OBJECT_ID><CENTER_NAME>EARTH</CENTER_NAME><REF_FRAME>TEME</REF_FRAME><TIME_SYSTEM>UTC</TIME_SYSTEM><MEAN_ELEMENT_THEORY>SGP4</MEAN_ELEMENT_THEORY></metadata><data><meanElements><EPOCH>2020-09-09T06:00:00.999648</EPOCH><MEAN_MOTION>15.66268045</MEAN_MOTION><ECCENTRICITY>.0001529</ECCENTRICITY><INCLINATION>52.9986</INCLINATION><RA_OF_ASC_NODE>333.6353</RA_OF_ASC_NODE><ARG_OF_PERICENTER>65.5127</ARG_OF_PERICENTER><MEAN_ANOMALY>239.8183</MEAN_ANOMALY></meanElements><tleParameters><EPHEMERIS_TYPE>0</EPHEMERIS_TYPE><CLASSIFICATION_TYPE>U</CLASSIFICATION_TYPE><NORAD_CAT_ID>46131</NORAD_CAT_ID><ELEMENT_SET_NO>999</ELEMENT_SET_NO><REV_AT_EPOCH>182</REV_AT_EPOCH><BSTAR>.22920E-3</BSTAR><MEAN_MOTION_DOT>2.3635E-4</MEAN_MOTION_DOT><MEAN_MOTION_DDOT>0</MEAN_MOTION_DDOT></tleParameters></data></segment></body></omm>
<omm id="CCSDS_OMM_VERS" version="2.0">
<header><CREATION_DATE/><ORIGINATOR/></header><body><segment><metadata><OBJECT_NAME>STARLINK-1630</OBJECT_NAME><OBJECT_ID>2020-057R</OBJECT_ID><CENTER_NAME>EARTH</CENTER_NAME><REF_FRAME>TEME</REF_FRAME><TIME_SYSTEM>UTC</TIME_SYSTEM><MEAN_ELEMENT_THEORY>SGP4</MEAN_ELEMENT_THEORY></metadata><data><meanElements><EPOCH>2020-09-09T12:00:00.999648</EPOCH><MEAN_MOTION>15.62788510</MEAN_MOTION><ECCENTRICITY>.0001254</ECCENTRICITY><INCLINATION>53.0004</INCLINATION><RA_OF_ASC_NODE>332.7491</RA_OF_ASC_NODE><ARG_OF_PERICENTER>50.2231</ARG_OF_PERICENTER><MEAN_ANOMALY>58.8354</MEAN_ANOMALY></meanElements><tleParameters><EPHEMERIS_TYPE>0</EPHEMERIS_TYPE><CLASSIFICATION_TYPE>U</CLASSIFICATION_TYPE><NORAD_CAT_ID>46132</NORAD_CAT_ID><ELEMENT_SET_NO>999</ELEMENT_SET_NO><REV_AT_EPOCH>412</REV_AT_EPOCH><BSTAR>-.70071E-3</BSTAR><MEAN_MOTION_DOT>-6.4277E-4</MEAN_MOTION_DOT><MEAN_MOTION_DDOT>0</MEAN_MOTION_DDOT></tleParameters></data></segment></body></omm>
<omm id="CCSDS_OMM_VERS" version="2.0">
<header><CREATION_DATE/><ORIGINATOR/></header><body><segment><metadata><OBJECT_NAME>STARLINK-1637</OBJECT_NAME><OBJECT_ID>2020-057S</OBJECT_ID><CENTER_NAME>EARTH</CENTER_NAME><REF_FRAME>TEME</REF_FRAME><TIME_SYSTEM>UTC</TIME_SYSTEM><MEAN_ELEMENT_THEORY>SGP4</MEAN_ELEMENT_THEORY></metadata><data><meanElements><EPOCH>2020-09-09T06:00:00.999648</EPOCH><MEAN_MOTION>15.66276573</MEAN_MOTION><ECCENTRICITY>.0002280</ECCENTRICITY><INCLINATION>52.9982</INCLINATION><RA_OF_ASC_NODE>333.5996</RA_OF_ASC_NODE><ARG_OF_PERICENTER>309.4367</ARG_OF_PERICENTER><MEAN_ANOMALY>9.5331</MEAN_ANOMALY></meanElements><tleParameters><EPHEMERIS_TYPE>0</EPHEMERIS_TYPE><CLASSIFICATION_TYPE>U</CLASSIFICATION_TYPE><NORAD_CAT_ID>46133</NORAD_CAT_ID><ELEMENT_SET_NO>999</ELEMENT_SET_NO><REV_AT_EPOCH>177</REV_AT_EPOCH><BSTAR>.19984E-3</BSTAR><MEAN_MOTION_DOT>2.0536E-4</MEAN_MOTION_DOT><MEAN_MOTION_DDOT>0</MEAN_MOTION_DDOT></tleParameters></data></segment></body></omm>
<omm id="CCSDS_OMM_VERS" version="2.0">
<header><CREATION_DATE/><ORIGINATOR/></header><body><segment><metadata><OBJECT_NAME>STARLINK-1638</OBJECT_NAME><OBJECT_ID>2020-057T</OBJECT_ID><CENTER_NAME>EARTH</CENTER_NAME><REF_FRAME>TEME</REF_FRAME><TIME_SYSTEM>UTC</TIME_SYSTEM><MEAN_ELEMENT_THEORY>SGP4</MEAN_ELEMENT_THEORY></metadata><data><meanElements><EPOCH>2020-09-09T06:00:00.999648</EPOCH><MEAN_MOTION>15.62776388</MEAN_MOTION><ECCENTRICITY>.0004689</ECCENTRICITY><INCLINATION>53.0006</INCLINATION><RA_OF_ASC_NODE>333.9892</RA_OF_ASC_NODE><ARG_OF_PERICENTER>281.9128</ARG_OF_PERICENTER><MEAN_ANOMALY>212.8797</MEAN_ANOMALY></meanElements><tleParameters><EPHEMERIS_TYPE>0</EPHEMERIS_TYPE><CLASSIFICATION_TYPE>U</CLASSIFICATION_TYPE><NORAD_CAT_ID>46134</NORAD_CAT_ID><ELEMENT_SET_NO>999</ELEMENT_SET_NO><REV_AT_EPOCH>177</REV_AT_EPOCH><BSTAR>.26129E-3</BSTAR><MEAN_MOTION_DOT>2.3489E-4</MEAN_MOTION_DOT><MEAN_MOTION_DDOT>0</MEAN_MOTION_DDOT></tleParameters></data></segment></body></omm>
<omm id="CCSDS_OMM_VERS" version="2.0">
<header><CREATION_DATE/><ORIGINATOR/></header><body><segment><metadata><OBJECT_NAME>STARLINK-1639</OBJECT_NAME><OBJECT_ID>2020-057U</OBJECT_ID><CENTER_NAME>EARTH</CENTER_NAME><REF_FRAME>TEME</REF_FRAME><TIME_SYSTEM>UTC</TIME_SYSTEM><MEAN_ELEMENT_THEORY>SGP4</MEAN_ELEMENT_THEORY></metadata><data><meanElements><EPOCH>2020-09-09T06:00:00.999648</EPOCH><MEAN_MOTION>15.62737464</MEAN_MOTION><ECCENTRICITY>.0000992</ECCENTRICITY><INCLINATION>52.9997</INCLINATION><RA_OF_ASC_NODE>333.9441</RA_OF_ASC_NODE><ARG_OF_PERICENTER>59.5623</ARG_OF_PERICENTER><MEAN_ANOMALY>94.4115</MEAN_ANOMALY></meanElements><tleParameters><EPHEMERIS_TYPE>0</EPHEMERIS_TYPE><CLASSIFICATION_TYPE>U</CLASSIFICATION_TYPE><NORAD_CAT_ID>46135</NORAD_CAT_ID><ELEMENT_SET_NO>999</ELEMENT_SET_NO><REV_AT_EPOCH>177</REV_AT_EPOCH><BSTAR>-.11957E-3</BSTAR><MEAN_MOTION_DOT>-1.146E-4</MEAN_MOTION_DOT><MEAN_MOTION_DDOT>0</MEAN_MOTION_DDOT></tleParameters></data></segment></body></omm>

</ndm>
